STRATOSAT-TK 1 (RS52S)  
1 57167U 23091B   25165.77590646  .00029891  00000+0  73414-3 0  9994
2 57167  97.5518 229.4364 0006661 285.3865  74.6645 15.40604170108817
UMKA 1 (RS40S)          
1 57172U 23091G   25165.88935241  .00005279  00000+0  28244-3 0  9991
2 57172  97.5570 221.2436 0013091 321.0676  38.9612 15.15417928108287
CUBESX-HSE 3 (RS42S)    
1 57178U 23091N   25165.85168164  .00009040  00000+0  41180-3 0  9990
2 57178  97.5599 223.6119 0012005 307.6354  52.3791 15.20843968108411
MONITOR-3 (RS58S)       
1 57180U 23091Q   25165.75277537  .00007380  00000+0  35343-3 0  9996
2 57180  97.5596 222.7655 0012615 310.9337  49.0804 15.19177232108354
MONITOR-4 (RS57S)       
1 57182U 23091S   25165.88075857  .00007266  00000+0  34754-3 0  9991
2 57182  97.5590 222.8517 0012632 311.1691  48.8453 15.19226834108375
MONITOR-2 (RS39S)       
1 57184U 23091U   25165.76156502  .00004963  00000+0  27337-3 0  9997
2 57184  97.5599 221.3843 0010992 311.6086  48.4203 15.14432397108267
SVYATOBOR 1 (RS60S)     
1 57187U 23091X   25165.85340224  .00007151  00000+0  34441-3 0  9992
2 57187  97.5599 223.5716 0009548 301.6359  58.3943 15.19022009108418
VIZARD-METEO (RS38S)    
1 57189U 23091Z   25165.85129446  .00010377  00000+0  43567-3 0  9998
2 57189  97.5587 225.4901 0007884 292.1889  67.8511 15.23625843108547
NANOZOND 1 (RS49S)      
1 57190U 23091AA  25165.86262985  .00023008  00000+0  65821-3 0  9999
2 57190  97.5542 229.5058 0004880 277.1616  82.9073 15.35959504108821
POLYTECH-UNIVERSE 3 (R*)
1 57191U 23091AB  25165.76131848  .00005087  00000+0  27900-3 0  9995
2 57191  97.5568 220.9290 0015998 328.0580  31.9681 15.14513124108258
UTMN 2 (RS27S)          
1 57203U 23091AP  25165.76688481  .00008991  00000+0  39810-3 0  9999
2 57203  97.5589 224.6774 0008413 295.6839  64.3527 15.21854762108481
ARCCUBE 1 (RS25S)       
1 57205U 23091AR  25165.76697773  .00041798  00000+0  85662-3 0  9993
2 57205  97.5454 231.6042 0004290 259.7366 100.3400 15.45947813108976
KUZGTU 1 (RS47S)        
1 57217U 23091AV  25165.88018370  .00007978  00000+0  37037-3 0  9994
2 57217  97.5575 223.1871 0012008 310.0898  49.9283 15.20233158108404
SONATE-2                
1 59112U 24043Q   25165.31605568  .00018259  00000+0  52269-3 0  9995
2 59112  97.5152 296.5886 0012253  98.5101 261.7531 15.35922054 71065
