[
  {
    "OBJECT_NAME": "STRATOSAT-TK 1 (RS52S)",
    "OBJECT_ID": "2023-091B",
    "EPOCH": "2025-06-14T18:37:18.318144",
    "MEAN_MOTION": 15.4060417,
    "ECCENTRICITY": 0.0006661,
    "INCLINATION": 97.5518,
    "RA_OF_ASC_NODE": 229.4364,
    "ARG_OF_PERICENTER": 285.3865,
    "MEAN_ANOMALY": 74.6645,
    "EPHEMERIS_TYPE": 0,
    "CLASSIFICATION_TYPE": "U",
    "NORAD_CAT_ID": 57167,
    "ELEMENT_SET_NO": 999,
    "REV_AT_EPOCH": 10881,
    "BSTAR": 0.00073414,
    "MEAN_MOTION_DOT": 0.00029891,
    "MEAN_MOTION_DDOT": 0
  },
  {
    "OBJECT_NAME": "UMKA 1 (RS40S)",
    "OBJECT_ID": "2023-091G",
    "EPOCH": "2025-06-14T21:20:40.048224",
    "MEAN_MOTION": 15.15417928,
    "ECCENTRICITY": 0.0013091,
    "INCLINATION": 97.557,
    "RA_OF_ASC_NODE": 221.2436,
    "ARG_OF_PERICENTER": 321.0676,
    "MEAN_ANOMALY": 38.9612,
    "EPHEMERIS_TYPE": 0,
    "CLASSIFICATION_TYPE": "U",
    "NORAD_CAT_ID": 57172,
    "ELEMENT_SET_NO": 999,
    "REV_AT_EPOCH": 10828,
    "BSTAR": 0.00028244,
    "MEAN_MOTION_DOT": 5.279e-05,
    "MEAN_MOTION_DDOT": 0
  },
  {
    "OBJECT_NAME": "CUBESX-HSE 3 (RS42S)",
    "OBJECT_ID": "2023-091N",
    "EPOCH": "2025-06-14T20:26:25.293696",
    "MEAN_MOTION": 15.20843968,
    "ECCENTRICITY": 0.0012005,
    "INCLINATION": 97.5599,
    "RA_OF_ASC_NODE": 223.6119,
    "ARG_OF_PERICENTER": 307.6354,
    "MEAN_ANOMALY": 52.3791,
    "EPHEMERIS_TYPE": 0,
    "CLASSIFICATION_TYPE": "U",
    "NORAD_CAT_ID": 57178,
    "ELEMENT_SET_NO": 999,
    "REV_AT_EPOCH": 10841,
    "BSTAR": 0.0004118,
    "MEAN_MOTION_DOT": 9.04e-05,
    "MEAN_MOTION_DDOT": 0
  },
  {
    "OBJECT_NAME": "MONITOR-3 (RS58S)",
    "OBJECT_ID": "2023-091Q",
    "EPOCH": "2025-06-14T18:03:59.791968",
    "MEAN_MOTION": 15.19177232,
    "ECCENTRICITY": 0.0012615,
    "INCLINATION": 97.5596,
    "RA_OF_ASC_NODE": 222.7655,
    "ARG_OF_PERICENTER": 310.9337,
    "MEAN_ANOMALY": 49.0804,
    "EPHEMERIS_TYPE": 0,
    "CLASSIFICATION_TYPE": "U",
    "NORAD_CAT_ID": 57180,
    "ELEMENT_SET_NO": 999,
    "REV_AT_EPOCH": 10835,
    "BSTAR": 0.00035343,
    "MEAN_MOTION_DOT": 7.38e-05,
    "MEAN_MOTION_DDOT": 0
  },
  {
    "OBJECT_NAME": "MONITOR-4 (RS57S)",
    "OBJECT_ID": "2023-091S",
    "EPOCH": "2025-06-14T21:08:17.540448",
    "MEAN_MOTION": 15.19226834,
    "ECCENTRICITY": 0.0012632,
    "INCLINATION": 97.559,
    "RA_OF_ASC_NODE": 222.8517,
    "ARG_OF_PERICENTER": 311.1691,
    "MEAN_ANOMALY": 48.8453,
    "EPHEMERIS_TYPE": 0,
    "CLASSIFICATION_TYPE": "U",
    "NORAD_CAT_ID": 57182,
    "ELEMENT_SET_NO": 999,
    "REV_AT_EPOCH": 10837,
    "BSTAR": 0.00034754,
    "MEAN_MOTION_DOT": 7.266e-05,
    "MEAN_MOTION_DDOT": 0
  },
  {
    "OBJECT_NAME": "MONITOR-2 (RS39S)",
    "OBJECT_ID": "2023-091U",
    "EPOCH": "2025-06-14T18:16:39.217728",
    "MEAN_MOTION": 15.14432397,
    "ECCENTRICITY": 0.0010992,
    "INCLINATION": 97.5599,
    "RA_OF_ASC_NODE": 221.3843,
    "ARG_OF_PERICENTER": 311.6086,
    "MEAN_ANOMALY": 48.4203,
    "EPHEMERIS_TYPE": 0,
    "CLASSIFICATION_TYPE": "U",
    "NORAD_CAT_ID": 57184,
    "ELEMENT_SET_NO": 999,
    "REV_AT_EPOCH": 10826,
    "BSTAR": 0.00027337,
    "MEAN_MOTION_DOT": 4.963e-05,
    "MEAN_MOTION_DDOT": 0
  },
  {
    "OBJECT_NAME": "SVYATOBOR 1 (RS60S)",
    "OBJECT_ID": "2023-091X",
    "EPOCH": "2025-06-14T20:28:53.953536",
    "MEAN_MOTION": 15.19022009,
    "ECCENTRICITY": 0.0009548,
    "INCLINATION": 97.5599,
    "RA_OF_ASC_NODE": 223.5716,
    "ARG_OF_PERICENTER": 301.6359,
    "MEAN_ANOMALY": 58.3943,
    "EPHEMERIS_TYPE": 0,
    "CLASSIFICATION_TYPE": "U",
    "NORAD_CAT_ID": 57187,
    "ELEMENT_SET_NO": 999,
    "REV_AT_EPOCH": 10841,
    "BSTAR": 0.00034441,
    "MEAN_MOTION_DOT": 7.151e-05,
    "MEAN_MOTION_DDOT": 0
  },
  {
    "OBJECT_NAME": "VIZARD-METEO (RS38S)",
    "OBJECT_ID": "2023-091Z",
    "EPOCH": "2025-06-14T20:25:51.841344",
    "MEAN_MOTION": 15.23625843,
    "ECCENTRICITY": 0.0007884,
    "INCLINATION": 97.5587,
    "RA_OF_ASC_NODE": 225.4901,
    "ARG_OF_PERICENTER": 292.1889,
    "MEAN_ANOMALY": 67.8511,
    "EPHEMERIS_TYPE": 0,
    "CLASSIFICATION_TYPE": "U",
    "NORAD_CAT_ID": 57189,
    "ELEMENT_SET_NO": 999,
    "REV_AT_EPOCH": 10854,
    "BSTAR": 0.00043567,
    "MEAN_MOTION_DOT": 0.00010377,
    "MEAN_MOTION_DDOT": 0
  },
  {
    "OBJECT_NAME": "NANOZOND 1 (RS49S)",
    "OBJECT_ID": "2023-091AA",
    "EPOCH": "2025-06-14T20:42:11.219040",
    "MEAN_MOTION": 15.35959504,
    "ECCENTRICITY": 0.000488,
    "INCLINATION": 97.5542,
    "RA_OF_ASC_NODE": 229.5058,
    "ARG_OF_PERICENTER": 277.1616,
    "MEAN_ANOMALY": 82.9073,
    "EPHEMERIS_TYPE": 0,
    "CLASSIFICATION_TYPE": "U",
    "NORAD_CAT_ID": 57190,
    "ELEMENT_SET_NO": 999,
    "REV_AT_EPOCH": 10882,
    "BSTAR": 0.00065821,
    "MEAN_MOTION_DOT": 0.00023008,
    "MEAN_MOTION_DDOT": 0
  },
  {
    "OBJECT_NAME": "POLYTECH-UNIVERSE 3 (RS46S)",
    "OBJECT_ID": "2023-091AB",
    "EPOCH": "2025-06-14T18:16:17.916672",
    "MEAN_MOTION": 15.14513124,
    "ECCENTRICITY": 0.0015998,
    "INCLINATION": 97.5568,
    "RA_OF_ASC_NODE": 220.929,
    "ARG_OF_PERICENTER": 328.058,
    "MEAN_ANOMALY": 31.9681,
    "EPHEMERIS_TYPE": 0,
    "CLASSIFICATION_TYPE": "U",
    "NORAD_CAT_ID": 57191,
    "ELEMENT_SET_NO": 999,
    "REV_AT_EPOCH": 10825,
    "BSTAR": 0.000279,
    "MEAN_MOTION_DOT": 5.087e-05,
    "MEAN_MOTION_DDOT": 0
  },
  {
    "OBJECT_NAME": "UTMN 2 (RS27S)",
    "OBJECT_ID": "2023-091AP",
    "EPOCH": "2025-06-14T18:24:18.847584",
    "MEAN_MOTION": 15.21854762,
    "ECCENTRICITY": 0.0008413,
    "INCLINATION": 97.5589,
    "RA_OF_ASC_NODE": 224.6774,
    "ARG_OF_PERICENTER": 295.6839,
    "MEAN_ANOMALY": 64.3527,
    "EPHEMERIS_TYPE": 0,
    "CLASSIFICATION_TYPE": "U",
    "NORAD_CAT_ID": 57203,
    "ELEMENT_SET_NO": 999,
    "REV_AT_EPOCH": 10848,
    "BSTAR": 0.0003981,
    "MEAN_MOTION_DOT": 8.991e-05,
    "MEAN_MOTION_DDOT": 0
  },
  {
    "OBJECT_NAME": "ARCCUBE 1 (RS25S)",
    "OBJECT_ID": "2023-091AR",
    "EPOCH": "2025-06-14T18:24:26.875872",
    "MEAN_MOTION": 15.45947813,
    "ECCENTRICITY": 0.000429,
    "INCLINATION": 97.5454,
    "RA_OF_ASC_NODE": 231.6042,
    "ARG_OF_PERICENTER": 259.7366,
    "MEAN_ANOMALY": 100.34,
    "EPHEMERIS_TYPE": 0,
    "CLASSIFICATION_TYPE": "U",
    "NORAD_CAT_ID": 57205,
    "ELEMENT_SET_NO": 999,
    "REV_AT_EPOCH": 10897,
    "BSTAR": 0.00085662,
    "MEAN_MOTION_DOT": 0.00041798,
    "MEAN_MOTION_DDOT": 0
  },
  {
    "OBJECT_NAME": "KUZGTU 1 (RS47S)",
    "OBJECT_ID": "2023-091AV",
    "EPOCH": "2025-06-14T21:07:27.871680",
    "MEAN_MOTION": 15.20233158,
    "ECCENTRICITY": 0.0012008,
    "INCLINATION": 97.5575,
    "RA_OF_ASC_NODE": 223.1871,
    "ARG_OF_PERICENTER": 310.0898,
    "MEAN_ANOMALY": 49.9283,
    "EPHEMERIS_TYPE": 0,
    "CLASSIFICATION_TYPE": "U",
    "NORAD_CAT_ID": 57217,
    "ELEMENT_SET_NO": 999,
    "REV_AT_EPOCH": 10840,
    "BSTAR": 0.00037037,
    "MEAN_MOTION_DOT": 7.978e-05,
    "MEAN_MOTION_DDOT": 0
  },
  {
    "OBJECT_NAME": "SONATE-2",
    "OBJECT_ID": "2024-043Q",
    "EPOCH": "2025-06-14T07:35:07.210752",
    "MEAN_MOTION": 15.35922054,
    "ECCENTRICITY": 0.0012253,
    "INCLINATION": 97.5152,
    "RA_OF_ASC_NODE": 296.5886,
    "ARG_OF_PERICENTER": 98.5101,
    "MEAN_ANOMALY": 261.7531,
    "EPHEMERIS_TYPE": 0,
    "CLASSIFICATION_TYPE": "U",
    "NORAD_CAT_ID": 59112,
    "ELEMENT_SET_NO": 999,
    "REV_AT_EPOCH": 7106,
    "BSTAR": 0.00052269,
    "MEAN_MOTION_DOT": 0.00018259,
    "MEAN_MOTION_DDOT": 0
  }
]